{"type": "FeatureCollection", "features": [ {"type": "Feature", "properties": {"norad_id": 66648, "name": "COSMOS 2598 (RODNIK-S 23)", "group": "last-30-days", "lat": -73.08801178458702, "lon": 133.9997283555893, "alt_km": 1496.0928847659306, "timestamp": "2025-12-09T16:56:35.360261+00:00", "meta": {"OBJECT_NAME": "COSMOS 2598 (RODNIK-S 23)", "OBJECT_ID": "2025-273B", "EPOCH": "2025-12-09T11:42:43.537824", "MEAN_MOTION": 12.42861553, "ECCENTRICITY": 0.0007264, "INCLINATION": 82.5025, "RA_OF_ASC_NODE": 288.4721, "ARG_OF_PERICENTER": 259.0803, "MEAN_ANOMALY": 100.9459, "EPHEMERIS_TYPE": 0, "CLASSIFICATION_TYPE": "U", "NORAD_CAT_ID": 66648, "ELEMENT_SET_NO": 999, "REV_AT_EPOCH": 173, "BSTAR": -8.3492e-05, "MEAN_MOTION_DOT": -2e-08, "MEAN_MOTION_DDOT": 0}, "tle": {"line1": "1 66648U 25273B   25343.48800391 -.00000002  00000+0 -83492-4 0  9992", "line2": "2 66648  82.5025 288.4721 0007264 259.0803 100.9459 12.42861553  1738"}}, "geometry": {"type": "Point", "coordinates": [133.9997283555893, -73.08801178458702]}}, {"type": "Feature", "properties": {"norad_id": 66649, "name": "COSMOS 2599 (RODNIK-S 24)", "group": "last-30-days", "lat": -36.95749953993481, "lon": 114.03403527514175, "alt_km": 1505.6764459282922, "timestamp": "2025-12-09T16:56:35.360273+00:00", "meta": {"OBJECT_NAME": "COSMOS 2599 (RODNIK-S 24)", "OBJECT_ID": "2025-273C", "EPOCH": "2025-12-09T11:54:29.668608", "MEAN_MOTION": 12.41671799, "ECCENTRICITY": 0.0008173, "INCLINATION": 82.5025, "RA_OF_ASC_NODE": 288.4783, "ARG_OF_PERICENTER": 307.4246, "MEAN_ANOMALY": 52.6088, "EPHEMERIS_TYPE": 0, "CLASSIFICATION_TYPE": "U", "NORAD_CAT_ID": 66649, "ELEMENT_SET_NO": 999, "REV_AT_EPOCH": 173, "BSTAR": 0.00013025, "MEAN_MOTION_DOT": 2.8e-07, "MEAN_MOTION_DDOT": 0}, "tle": {"line1": "1 66649U 25273C   25343.49617672  .00000028  00000+0  13025-3 0  9992", "line2": "2 66649  82.5025 288.4783 0008173 307.4246  52.6088 12.41671799  1737"}}, "geometry": {"type": "Point", "coordinates": [114.03403527514175, -36.95749953993481]}}, {"type": "Feature", "properties": {"norad_id": 66650, "name": "BEE-1000", "group": "last-30-days", "lat": -30.417064301494783, "lon": 86.37011565574646, "alt_km": 594.4303644067832, "timestamp": "2025-12-09T16:56:35.360284+00:00", "meta": {"OBJECT_NAME": "BEE-1000", "OBJECT_ID": "2025-274A", "EPOCH": "2025-12-09T06:20:27.921120", "MEAN_MOTION": 14.91642041, "ECCENTRICITY": 0.001044, "INCLINATION": 97.7386, "RA_OF_ASC_NODE": 270.5157, "ARG_OF_PERICENTER": 264.9451, "MEAN_ANOMALY": 95.0576, "EPHEMERIS_TYPE": 0, "CLASSIFICATION_TYPE": "U", "NORAD_CAT_ID": 66650, "ELEMENT_SET_NO": 999, "REV_AT_EPOCH": 188, "BSTAR": 0.00027961, "MEAN_MOTION_DOT": 2.756e-05, "MEAN_MOTION_DDOT": 0}, "tle": {"line1": "1 66650U 25274A   25343.26421205  .00002756  00000+0  27961-3 0  9999", "line2": "2 66650  97.7386 270.5157 0010440 264.9451  95.0576 14.91642041  1883"}}, "geometry": {"type": "Point", "coordinates": [86.37011565574646, -30.417064301494783]}}, {"type": "Feature", "properties": {"norad_id": 66651, "name": "2025-274B", "group": "last-30-days", "lat": -33.96052794385106, "lon": 85.69556252694753, "alt_km": 593.7096661536907, "timestamp": "2025-12-09T16:56:35.360297+00:00", "meta": {"OBJECT_NAME": "2025-274B", "OBJECT_ID": "2025-274B", "EPOCH": "2025-12-09T07:56:08.402784", "MEAN_MOTION": 14.91755081, "ECCENTRICITY": 0.0010746, "INCLINATION": 97.7381, "RA_OF_ASC_NODE": 270.5817, "ARG_OF_PERICENTER": 263.8603, "MEAN_ANOMALY": 96.1392, "EPHEMERIS_TYPE": 0, "CLASSIFICATION_TYPE": "U", "NORAD_CAT_ID": 66651, "ELEMENT_SET_NO": 999, "REV_AT_EPOCH": 189, "BSTAR": 0.00057036, "MEAN_MOTION_DOT": 5.698e-05, "MEAN_MOTION_DDOT": 0}, "tle": {"line1": "1 66651U 25274B   25343.33065281  .00005698  00000+0  57036-3 0  9990", "line2": "2 66651  97.7381 270.5817 0010746 263.8603  96.1392 14.91755081  1896"}}, "geometry": {"type": "Point", "coordinates": [85.69556252694753, -33.96052794385106]}}, {"type": "Feature", "properties": {"norad_id": 66652, "name": "2025-274C", "group": "last-30-days", "lat": -40.405594792301756, "lon": 84.30642067714506, "alt_km": 593.868482397047, "timestamp": "2025-12-09T16:56:35.360307+00:00", "meta": {"OBJECT_NAME": "2025-274C", "OBJECT_ID": "2025-274C", "EPOCH": "2025-12-09T07:54:25.630848", "MEAN_MOTION": 14.91872769, "ECCENTRICITY": 0.0010412, "INCLINATION": 97.7387, "RA_OF_ASC_NODE": 270.584, "ARG_OF_PERICENTER": 270.7896, "MEAN_ANOMALY": 89.213, "EPHEMERIS_TYPE": 0, "CLASSIFICATION_TYPE": "U", "NORAD_CAT_ID": 66652, "ELEMENT_SET_NO": 999, "REV_AT_EPOCH": 189, "BSTAR": 0.00036571, "MEAN_MOTION_DOT": 3.643e-05, "MEAN_MOTION_DDOT": 0}, "tle": {"line1": "1 66652U 25274C   25343.32946332  .00003643  00000+0  36571-3 0  9994", "line2": "2 66652  97.7387 270.5840 0010412 270.7896  89.2130 14.91872769  1896"}}, "geometry": {"type": "Point", "coordinates": [84.30642067714506, -40.405594792301756]}}, {"type": "Feature", "properties": {"norad_id": 66653, "name": "2025-274D", "group": "last-30-days", "lat": -40.71516634625036, "lon": 84.23292893176004, "alt_km": 593.0287604037858, "timestamp": "2025-12-09T16:56:35.360318+00:00", "meta": {"OBJECT_NAME": "2025-274D", "OBJECT_ID": "2025-274D", "EPOCH": "2025-12-09T07:54:20.482272", "MEAN_MOTION": 14.91876857, "ECCENTRICITY": 0.0011283, "INCLINATION": 97.7386, "RA_OF_ASC_NODE": 270.5838, "ARG_OF_PERICENTER": 266.6852, "MEAN_ANOMALY": 93.3076, "EPHEMERIS_TYPE": 0, "CLASSIFICATION_TYPE": "U", "NORAD_CAT_ID": 66653, "ELEMENT_SET_NO": 999, "REV_AT_EPOCH": 189, "BSTAR": 0.00037311, "MEAN_MOTION_DOT": 3.719e-05, "MEAN_MOTION_DDOT": 0}, "tle": {"line1": "1 66653U 25274D   25343.32940373  .00003719  00000+0  37311-3 0  9991", "line2": "2 66653  97.7386 270.5838 0011283 266.6852  93.3076 14.91876857  1893"}}, "geometry": {"type": "Point", "coordinates": [84.23292893176004, -40.71516634625036]}}, {"type": "Feature", "properties": {"norad_id": 66654, "name": "JACK E", "group": "last-30-days", "lat": -48.34257477005487, "lon": 82.16486754958552, "alt_km": 591.8942689044852, "timestamp": "2025-12-09T16:56:35.360328+00:00", "meta": {"OBJECT_NAME": "JACK E", "OBJECT_ID": "2025-274E", "EPOCH": "2025-12-09T09:28:53.341248", "MEAN_MOTION": 14.9205262, "ECCENTRICITY": 0.0011865, "INCLINATION": 97.7388, "RA_OF_ASC_NODE": 270.6521, "ARG_OF_PERICENTER": 268.0515, "MEAN_ANOMALY": 91.9345, "EPHEMERIS_TYPE": 0, "CLASSIFICATION_TYPE": "U", "NORAD_CAT_ID": 66654, "ELEMENT_SET_NO": 999, "REV_AT_EPOCH": 190, "BSTAR": 0.00043977, "MEAN_MOTION_DOT": 4.414e-05, "MEAN_MOTION_DDOT": 0}, "tle": {"line1": "1 66654U 25274E   25343.39506182  .00004414  00000+0  43977-3 0  9993", "line2": "2 66654  97.7388 270.6521 0011865 268.0515  91.9345 14.92052620  1904"}}, "geometry": {"type": "Point", "coordinates": [82.16486754958552, -48.34257477005487]}}, {"type": "Feature", "properties": {"norad_id": 66655, "name": "2025-274F", "group": "last-30-days", "lat": -59.25867028862415, "lon": 77.75248267564193, "alt_km": 596.5655502148966, "timestamp": "2025-12-09T16:56:35.360337+00:00", "meta": {"OBJECT_NAME": "2025-274F", "OBJECT_ID": "2025-274F", "EPOCH": "2025-12-08T18:57:10.718496", "MEAN_MOTION": 14.92504145, "ECCENTRICITY": 0.00054909, "INCLINATION": 97.7329, "RA_OF_ASC_NODE": 270.0601, "ARG_OF_PERICENTER": 323.8556, "MEAN_ANOMALY": 36.2292, "EPHEMERIS_TYPE": 0, "CLASSIFICATION_TYPE": "U", "NORAD_CAT_ID": 66655, "ELEMENT_SET_NO": 999, "REV_AT_EPOCH": 181, "BSTAR": 0.001516128, "MEAN_MOTION_DOT": 0.00015539, "MEAN_MOTION_DDOT": 0}, "tle": {"line1": "1 66655U 25274F   25342.78970739  .00015539  00000+0  15161-2 0  9992", "line2": "2 66655  97.7329 270.0601 0005490 323.8556  36.2292 14.92504145  1812"}}, "geometry": {"type": "Point", "coordinates": [77.75248267564193, -59.25867028862415]}}, {"type": "Feature", "properties": {"norad_id": 66656, "name": "2025-274G", "group": "last-30-days", "lat": -56.667478473359324, "lon": 79.02806544020109, "alt_km": 590.5976635966945, "timestamp": "2025-12-09T16:56:35.360347+00:00", "meta": {"OBJECT_NAME": "2025-274G", "OBJECT_ID": "2025-274G", "EPOCH": "2025-12-09T07:50:05.565120", "MEAN_MOTION": 14.92240394, "ECCENTRICITY": 0.0012499, "INCLINATION": 97.7386, "RA_OF_ASC_NODE": 270.5878, "ARG_OF_PERICENTER": 270.1018, "MEAN_ANOMALY": 89.8768, "EPHEMERIS_TYPE": 0, "CLASSIFICATION_TYPE": "U", "NORAD_CAT_ID": 66656, "ELEMENT_SET_NO": 999, "REV_AT_EPOCH": 189, "BSTAR": 0.00045633, "MEAN_MOTION_DOT": 4.605e-05, "MEAN_MOTION_DDOT": 0}, "tle": {"line1": "1 66656U 25274G   25343.32645330  .00004605  00000+0  45633-3 0  9990", "line2": "2 66656  97.7386 270.5878 0012499 270.1018  89.8768 14.92240394  1894"}}, "geometry": {"type": "Point", "coordinates": [79.02806544020109, -56.667478473359324]}}, {"type": "Feature", "properties": {"norad_id": 66657, "name": "SPIRONE", "group": "last-30-days", "lat": -64.69480193217814, "lon": 74.24870412759113, "alt_km": 591.9474405540423, "timestamp": "2025-12-09T16:56:35.360357+00:00", "meta": {"OBJECT_NAME": "SPIRONE", "OBJECT_ID": "2025-274H", "EPOCH": "2025-12-08T20:32:05.028864", "MEAN_MOTION": 14.92414576, "ECCENTRICITY": 0.0010976, "INCLINATION": 97.7386, "RA_OF_ASC_NODE": 270.128, "ARG_OF_PERICENTER": 290.7866, "MEAN_ANOMALY": 69.2177, "EPHEMERIS_TYPE": 0, "CLASSIFICATION_TYPE": "U", "NORAD_CAT_ID": 66657, "ELEMENT_SET_NO": 999, "REV_AT_EPOCH": 182, "BSTAR": 0.00036917, "MEAN_MOTION_DOT": 3.729e-05, "MEAN_MOTION_DDOT": 0}, "tle": {"line1": "1 66657U 25274H   25342.85561376  .00003729  00000+0  36917-3 0  9996", "line2": "2 66657  97.7386 270.1280 0010976 290.7866  69.2177 14.92414576  1829"}}, "geometry": {"type": "Point", "coordinates": [74.24870412759113, -64.69480193217814]}}]}